[{"OBJECT_NAME":"STARLINK-35482","OBJECT_ID":"2025-253AD","EPOCH":"2026-03-09T09:48:31.733568","MEAN_MOTION":15.27595146,"ECCENTRICITY":0.00014555,"INCLINATION":42.9996,"RA_OF_ASC_NODE":213.9038,"ARG_OF_PERICENTER":156.1143,"MEAN_ANOMALY":203.9777,"EPHEMERIS_TYPE":0,"CLASSIFICATION_TYPE":"U","NORAD_CAT_ID":66346,"ELEMENT_SET_NO":999,"REV_AT_EPOCH":2020,"BSTAR":0.0009457212,"MEAN_MOTION_DOT":0.00025865,"MEAN_MOTION_DDOT":0},{"OBJECT_NAME":"CZ-2D DEB","OBJECT_ID":"2010-027D","EPOCH":"2026-03-07T13:36:06.977952","MEAN_MOTION":15.23568143,"ECCENTRICITY":0.0065729,"INCLINATION":97.6621,"RA_OF_ASC_NODE":290.9585,"ARG_OF_PERICENTER":344.0278,"MEAN_ANOMALY":15.8885,"EPHEMERIS_TYPE":0,"CLASSIFICATION_TYPE":"U","NORAD_CAT_ID":38299,"ELEMENT_SET_NO":999,"REV_AT_EPOCH":83553,"BSTAR":0.0024156,"MEAN_MOTION_DOT":0.00061723,"MEAN_MOTION_DDOT":0}]
